[{"OBJECT_NAME":"STARLINK-5000","OBJECT_ID":"2022-119BB","EPOCH":"2026-03-09T22:20:27.113568","MEAN_MOTION":15.08856539,"ECCENTRICITY":0.00014677,"INCLINATION":53.2177,"RA_OF_ASC_NODE":287.9186,"ARG_OF_PERICENTER":85.1564,"MEAN_ANOMALY":274.9596,"EPHEMERIS_TYPE":0,"CLASSIFICATION_TYPE":"U","NORAD_CAT_ID":53935,"ELEMENT_SET_NO":999,"REV_AT_EPOCH":19221,"BSTAR":0.00017473704,"MEAN_MOTION_DOT":2.495e-5,"MEAN_MOTION_DDOT":0},{"OBJECT_NAME":"NANOFF B","OBJECT_ID":"2023-185S","EPOCH":"2026-03-09T23:34:31.291104","MEAN_MOTION":15.11549361,"ECCENTRICITY":0.00109129,"INCLINATION":97.5361,"RA_OF_ASC_NODE":137.8575,"ARG_OF_PERICENTER":288.4201,"MEAN_ANOMALY":71.5842,"EPHEMERIS_TYPE":0,"CLASSIFICATION_TYPE":"U","NORAD_CAT_ID":58755,"ELEMENT_SET_NO":999,"REV_AT_EPOCH":11888,"BSTAR":0.00028764283,"MEAN_MOTION_DOT":4.819e-5,"MEAN_MOTION_DDOT":0}]
